{
  "type": "FeatureCollection",
  "features": [
    {
      "type": "Feature",
      "properties": {
        "norad_id": 26766,
        "name": "INTELSAT 10 (IS-10)",
        "group": "intelsat",
        "lat": 8.377731956989425,
        "lon": 136.7021000842555,
        "alt_km": 36151.63496272065,
        "timestamp": "2025-12-14T18:52:55.165512+00:00",
        "meta_object_name": "INTELSAT 10 (IS-10)",
        "meta_object_id": "2001-019A",
        "meta_epoch": "2025-12-13T14:05:32.067744",
        "meta_mean_motion": 0.99078362,
        "meta_eccentricity": 0.00077388,
        "meta_inclination": 8.632,
        "meta_ra_of_asc_node": 61.1493,
        "meta_arg_of_pericenter": 225.9608,
        "meta_mean_anomaly": 141.9213,
        "meta_ephemeris_type": 0,
        "meta_classification_type": "U",
        "meta_norad_cat_id": 26766,
        "meta_element_set_no": 999,
        "meta_rev_at_epoch": 4374,
        "meta_bstar": 0,
        "meta_mean_motion_dot": -2.69e-06,
        "meta_mean_motion_ddot": 0,
        "tle_line1": "1 26766U 01019A   25347.58717671 -.00000269  00000+0  00000+0 0  9997",
        "tle_line2": "2 26766   8.6320  61.1493 0007738 225.9608 141.9213  0.99078362 43742"
      },
      "geometry": {
        "type": "Point",
        "coordinates": [
          136.7021000842555,
          8.377731956989425
        ]
      }
    },
    {
      "type": "Feature",
      "properties": {
        "norad_id": 26900,
        "name": "INTELSAT 902 (IS-902)",
        "group": "intelsat",
        "lat": -5.036313054210567,
        "lon": -43.24214417523197,
        "alt_km": 35776.919961796615,
        "timestamp": "2025-12-14T18:52:55.165536+00:00",
        "meta_object_name": "INTELSAT 902 (IS-902)",
        "meta_object_id": "2001-039A",
        "meta_epoch": "2025-12-11T04:42:42.842016",
        "meta_mean_motion": 1.00272526,
        "meta_eccentricity": 0.00044264,
        "meta_inclination": 5.6424,
        "meta_ra_of_asc_node": 74.0881,
        "meta_arg_of_pericenter": 184.9809,
        "meta_mean_anomaly": 201.6699,
        "meta_ephemeris_type": 0,
        "meta_classification_type": "U",
        "meta_norad_cat_id": 26900,
        "meta_element_set_no": 999,
        "meta_rev_at_epoch": 8881,
        "meta_bstar": 0,
        "meta_mean_motion_dot": -2.78e-06,
        "meta_mean_motion_ddot": 0,
        "tle_line1": "1 26900U 01039A   25345.19632919 -.00000278  00000+0  00000+0 0  9995",
        "tle_line2": "2 26900   5.6424  74.0881 0004426 184.9809 201.6699  1.00272526 88816"
      },
      "geometry": {
        "type": "Point",
        "coordinates": [
          -43.24214417523197,
          -5.036313054210567
        ]
      }
    },
    {
      "type": "Feature",
      "properties": {
        "norad_id": 27380,
        "name": "INTELSAT 904 (IS-904)",
        "group": "intelsat",
        "lat": -6.4292745929168165,
        "lon": -24.59954167216232,
        "alt_km": 35781.32218076906,
        "timestamp": "2025-12-14T18:52:55.165552+00:00",
        "meta_object_name": "INTELSAT 904 (IS-904)",
        "meta_object_id": "2002-007A",
        "meta_epoch": "2025-12-13T15:00:41.787360",
        "meta_mean_motion": 1.00272569,
        "meta_eccentricity": 0.00015439,
        "meta_inclination": 6.457,
        "meta_ra_of_asc_node": 71.4225,
        "meta_arg_of_pericenter": 231.5446,
        "meta_mean_anomaly": 333.2596,
        "meta_ephemeris_type": 0,
        "meta_classification_type": "U",
        "meta_norad_cat_id": 27380,
        "meta_element_set_no": 999,
        "meta_rev_at_epoch": 4990,
        "meta_bstar": 0,
        "meta_mean_motion_dot": -2.13e-06,
        "meta_mean_motion_ddot": 0,
        "tle_line1": "1 27380U 02007A   25347.62548365 -.00000213  00000+0  00000+0 0  9994",
        "tle_line2": "2 27380   6.4570  71.4225 0001543 231.5446 333.2596  1.00272569 49908"
      },
      "geometry": {
        "type": "Point",
        "coordinates": [
          -24.59954167216232,
          -6.4292745929168165
        ]
      }
    },
    {
      "type": "Feature",
      "properties": {
        "norad_id": 27426,
        "name": "DIRECTV 5 (TEMPO 1)",
        "group": "intelsat",
        "lat": 0.04271096701217663,
        "lon": -103.20601191472899,
        "alt_km": 35772.15952888621,
        "timestamp": "2025-12-14T18:52:55.165566+00:00",
        "meta_object_name": "DIRECTV 5 (TEMPO 1)",
        "meta_object_id": "2002-023A",
        "meta_epoch": "2025-12-13T21:28:59.403072",
        "meta_mean_motion": 1.00272243,
        "meta_eccentricity": 0.0003446,
        "meta_inclination": 4.4052,
        "meta_ra_of_asc_node": 77.6401,
        "meta_arg_of_pericenter": 198.3687,
        "meta_mean_anomaly": 18.9363,
        "meta_ephemeris_type": 0,
        "meta_classification_type": "U",
        "meta_norad_cat_id": 27426,
        "meta_element_set_no": 999,
        "meta_rev_at_epoch": 8626,
        "meta_bstar": 0,
        "meta_mean_motion_dot": -4.2e-07,
        "meta_mean_motion_ddot": 0,
        "tle_line1": "1 27426U 02023A   25347.89513198 -.00000042  00000+0  00000+0 0  9998",
        "tle_line2": "2 27426   4.4052  77.6401 0003446 198.3687  18.9363  1.00272243 86265"
      },
      "geometry": {
        "type": "Point",
        "coordinates": [
          -103.20601191472899,
          0.04271096701217663
        ]
      }
    },
    {
      "type": "Feature",
      "properties": {
        "norad_id": 27438,
        "name": "INTELSAT 905 (IS-905)",
        "group": "intelsat",
        "lat": 2.364945375252546,
        "lon": -130.1515180515171,
        "alt_km": 35776.77629164084,
        "timestamp": "2025-12-14T18:52:55.165579+00:00",
        "meta_object_name": "INTELSAT 905 (IS-905)",
        "meta_object_id": "2002-027A",
        "meta_epoch": "2025-12-13T10:28:18.325344",
        "meta_mean_motion": 1.00273844,
        "meta_eccentricity": 0.0002665,
        "meta_inclination": 6.2877,
        "meta_ra_of_asc_node": 72.0486,
        "meta_arg_of_pericenter": 200.4661,
        "meta_mean_anomaly": 189.7386,
        "meta_ephemeris_type": 0,
        "meta_classification_type": "U",
        "meta_norad_cat_id": 27438,
        "meta_element_set_no": 999,
        "meta_rev_at_epoch": 4950,
        "meta_bstar": 0,
        "meta_mean_motion_dot": 1.06e-06,
        "meta_mean_motion_ddot": 0,
        "tle_line1": "1 27438U 02027A   25347.43632321  .00000106  00000+0  00000+0 0  9995",
        "tle_line2": "2 27438   6.2877  72.0486 0002665 200.4661 189.7386  1.00273844 49500"
      },
      "geometry": {
        "type": "Point",
        "coordinates": [
          -130.1515180515171,
          2.364945375252546
        ]
      }
    },
    {
      "type": "Feature",
      "properties": {
        "norad_id": 27445,
        "name": "GALAXY 3C (G-3C)",
        "group": "intelsat",
        "lat": -0.6767592788013826,
        "lon": -87.94663676141444,
        "alt_km": 35787.571340430324,
        "timestamp": "2025-12-14T18:52:55.165592+00:00",
        "meta_object_name": "GALAXY 3C (G-3C)",
        "meta_object_id": "2002-030A",
        "meta_epoch": "2025-12-13T21:33:28.971936",
        "meta_mean_motion": 1.00271583,
        "meta_eccentricity": 0.00010921,
        "meta_inclination": 3.2672,
        "meta_ra_of_asc_node": 80.495,
        "meta_arg_of_pericenter": 84.9997,
        "meta_mean_anomaly": 145.8358,
        "meta_ephemeris_type": 0,
        "meta_classification_type": "U",
        "meta_norad_cat_id": 27445,
        "meta_element_set_no": 999,
        "meta_rev_at_epoch": 4463,
        "meta_bstar": 0,
        "meta_mean_motion_dot": -1.37e-06,
        "meta_mean_motion_ddot": 0,
        "tle_line1": "1 27445U 02030A   25347.89825199 -.00000137  00000+0  00000+0 0  9999",
        "tle_line2": "2 27445   3.2672  80.4950 0001092  84.9997 145.8358  1.00271583 44636"
      },
      "geometry": {
        "type": "Point",
        "coordinates": [
          -87.94663676141444,
          -0.6767592788013826
        ]
      }
    },
    {
      "type": "Feature",
      "properties": {
        "norad_id": 27513,
        "name": "INTELSAT 906 (IS-906)",
        "group": "intelsat",
        "lat": -0.3625844395021974,
        "lon": 71.09000928932468,
        "alt_km": 35811.153307424705,
        "timestamp": "2025-12-14T18:52:55.165623+00:00",
        "meta_object_name": "INTELSAT 906 (IS-906)",
        "meta_object_id": "2002-041A",
        "meta_epoch": "2025-12-13T20:36:09.658368",
        "meta_mean_motion": 1.00271703,
        "meta_eccentricity": 0.00062076,
        "meta_inclination": 5.3318,
        "meta_ra_of_asc_node": 75.2178,
        "meta_arg_of_pericenter": 193.5774,
        "meta_mean_anomaly": 187.1567,
        "meta_ephemeris_type": 0,
        "meta_classification_type": "U",
        "meta_norad_cat_id": 27513,
        "meta_element_set_no": 999,
        "meta_rev_at_epoch": 8517,
        "meta_bstar": 0,
        "meta_mean_motion_dot": 2.7e-07,
        "meta_mean_motion_ddot": 0,
        "tle_line1": "1 27513U 02041A   25347.85844512  .00000027  00000+0  00000+0 0  9990",
        "tle_line2": "2 27513   5.3318  75.2178 0006207 193.5774 187.1567  1.00271703 85178"
      },
      "geometry": {
        "type": "Point",
        "coordinates": [
          71.09000928932468,
          -0.3625844395021974
        ]
      }
    }
  ]
}